[{"OBJECT_NAME":"CUTE-1.7+APD II (CO-65)","OBJECT_ID":"2008-021C","EPOCH":"2026-03-09T21:54:04.726080","MEAN_MOTION":15.08376872,"ECCENTRICITY":0.00096053,"INCLINATION":97.8207,"RA_OF_ASC_NODE":48.3884,"ARG_OF_PERICENTER":18.7003,"MEAN_ANOMALY":341.4575,"EPHEMERIS_TYPE":0,"CLASSIFICATION_TYPE":"U","NORAD_CAT_ID":32785,"ELEMENT_SET_NO":999,"REV_AT_EPOCH":97022,"BSTAR":0.00047295391,"MEAN_MOTION_DOT":7.295e-5,"MEAN_MOTION_DDOT":0},{"OBJECT_NAME":"STARLINK-4787","OBJECT_ID":"2022-119U","EPOCH":"2026-03-09T23:27:19.044864","MEAN_MOTION":15.08823512,"ECCENTRICITY":0.00012789,"INCLINATION":53.219,"RA_OF_ASC_NODE":322.4315,"ARG_OF_PERICENTER":93.919,"MEAN_ANOMALY":266.1948,"EPHEMERIS_TYPE":0,"CLASSIFICATION_TYPE":"U","NORAD_CAT_ID":53904,"ELEMENT_SET_NO":999,"REV_AT_EPOCH":19173,"BSTAR":0.00011519537,"MEAN_MOTION_DOT":1.545e-5,"MEAN_MOTION_DDOT":0}]
